STARLINK-37331          
1 68738U 26082L   26113.54870301 -.00558218  00000+0 -28499-2 0  9995
2 68738  97.2883 335.6802 0001198 182.4270 177.6994 15.82658116  1187
