{
  "norad_id": 68738,
  "name": "STARLINK-37331",
  "history": [
    {
      "epoch": "2026-04-23T13:10:07.940064Z",
      "apogee_km": 323.72982981572477,
      "perigee_km": 322.1242548711789,
      "latitude_deg": 4.6190023960066736e-05,
      "longitude_deg": -73.44723722927026,
      "height_km": 326.90757747534764,
      "semi_major_axis_km": 6701.064042343452,
      "eccentricity": 0.0001198,
      "inclination_deg": 97.2883,
      "raan_deg": 335.6802,
      "arg_perigee_deg": 182.427,
      "mean_anomaly_deg": 177.6994,
      "mean_motion_rev_day": 15.82658116
    }
  ]
}